0 FENGYUN 1C DEB
1 30611U 99025AMS 13282.67641691  .00018968  00000-0  14227-2 0  5910
2 30611 098.6122 059.3669 0284438 206.0403 283.4286 14.75721102357966
0 FENGYUN 1C DEB
1 30611U 99025AMS 13285.65961549  .00017630  00000-0  13201-2 0  5925
2 30611 098.6120 062.5481 0284311 196.5949 292.4845 14.75811541358408
0 FENGYUN 1C DEB
1 30611U 99025AMS 13286.67670181  .00017805  00000-0  13320-2 0  5934
2 30611 098.6117 063.6326 0284303 193.3605 296.2598 14.75840759358555
0 FENGYUN 1C DEB
1 30611U 99025AMS 13288.35786322  .00020619  00000-0  15386-2 0  5948
2 30611 098.6119 065.4263 0284248 188.0599 228.4787 14.75900463358802
0 FENGYUN 1C DEB
1 30611U 99025AMS 13289.36807928  .00019588  00000-0  14611-2 0  5950
2 30611 098.6123 066.5043 0284180 184.8603 196.0781 14.75934354358956
0 FENGYUN 1C DEB
1 30611U 99025AMS 13290.67660895  .00021820  00000-0  16249-2 0  5968
2 30611 098.6130 067.9004 0284103 180.7102 308.8946 14.75978097359140
0 FENGYUN 1C DEB
1 30611U 99025AMS 13291.89669899  .00016262  00000-0  12121-2 0  5976
2 30611 098.6133 069.2024 0283998 176.8605 311.9632 14.76028409359326
0 FENGYUN 1C DEB
1 30611U 99025AMS 13293.10358292  .00017443  00000-0  12984-2 0  5984
2 30611 098.6137 070.4903 0283936 173.0461 245.0735 14.76066267359506
0 FENGYUN 1C DEB
1 30611U 99025AMS 13294.20088256  .00020355  00000-0  15127-2 0  5995
2 30611 098.6139 071.6611 0283853 169.5784 316.0197 14.76099065359663
0 FENGYUN 1C DEB
1 30611U 99025AMS 13295.34132544  .00020779  00000-0  15426-2 0  6006
2 30611 098.6139 072.8784 0283774 165.9709 256.3733 14.76142012359838
